start=new Date('2022-02-09T00:00:00.000Z').valueOf();
sats=[{"PERIAPSIS":"546.172","OBJECT_ID":"2021-005BC","MEAN_MOTION":"15.06390596","COUNTRY_CODE":"US","GP_ID":"195548781","PERIOD":"95.593","REV_AT_EPOCH":"5868","MEAN_MOTION_DDOT":"0.0000000000000","BSTAR":"0.00002903900000","CLASSIFICATION_TYPE":"U","MEAN_MOTION_DOT":"0.00000151","SEMIMAJOR_AXIS":"6925.377","APOAPSIS":"548.313","RCS_SIZE":"LARGE","TLE_LINE2":"2 47399  53.0552 252.1821 0001546  67.2473 292.8679 15.06390596 58684","OBJECT_TYPE":"PAYLOAD","ECCENTRICITY":"0.00015460","ELEMENT_SET_NO":"999","CENTER_NAME":"EARTH","EPHEMERIS_TYPE":"0","NORAD_CAT_ID":"47399","LAUNCH_DATE":"2021-01-20","TLE_LINE1":"1 47399U 21005BC  22039.31334822  .00000151  00000-0  29039-4 0  9996","SITE":"AFETR","EPOCH":"2022-02-08T07:31:13.286208","MEAN_ANOMALY":"292.8679","INCLINATION":"53.0552","FILE":"3295096","ARG_OF_PERICENTER":"67.2473","TIME_SYSTEM":"UTC","REF_FRAME":"TEME","RA_OF_ASC_NODE":"252.1821","OBJECT_NAME":"STARLINK-2121","MEAN_ELEMENT_THEORY":"SGP4","DECAY_DATE":null},{"TLE_LINE2":"2 47400  53.0537 232.5396 0001680  71.4589 288.6583 15.06380434 58950","CLASSIFICATION_TYPE":"U","MEAN_MOTION_DOT":"-0.00000122","SEMIMAJOR_AXIS":"6925.409","APOAPSIS":"548.437","RCS_SIZE":"LARGE","ELEMENT_SET_NO":"999","CENTER_NAME":"EARTH","ECCENTRICITY":"0.00016800","OBJECT_TYPE":"PAYLOAD","MEAN_ANOMALY":"288.6583","INCLINATION":"53.0537","FILE":"3295096","ARG_OF_PERICENTER":"71.4589","NORAD_CAT_ID":"47400","EPHEMERIS_TYPE":"0","LAUNCH_DATE":"2021-01-20","TLE_LINE1":"1 47400U 21005BD  22039.23042579 -.00000122  00000-0  10733-4 0  9995","EPOCH":"2022-02-08T05:31:48.788256","SITE":"AFETR","OBJECT_NAME":"STARLINK-2122","MEAN_ELEMENT_THEORY":"SGP4","DECAY_DATE":null,"TIME_SYSTEM":"UTC","REF_FRAME":"TEME","RA_OF_ASC_NODE":"232.5396","PERIAPSIS":"546.110","OBJECT_ID":"2021-005BD","GP_ID":"195547544","MEAN_MOTION":"15.06380434","COUNTRY_CODE":"US","REV_AT_EPOCH":"5895","MEAN_MOTION_DDOT":"0.0000000000000","BSTAR":"0.00001073300000","PERIOD":"95.593"},{"DECAY_DATE":null,"OBJECT_NAME":"STARLINK-2123","MEAN_ELEMENT_THEORY":"SGP4","RA_OF_ASC_NODE":"239.7966","REF_FRAME":"TEME","TIME_SYSTEM":"UTC","ARG_OF_PERICENTER":"63.3017","FILE":"3295382","INCLINATION":"53.0544","MEAN_ANOMALY":"296.8134","SITE":"AFETR","EPOCH":"2022-02-08T20:18:12.513888","LAUNCH_DATE":"2021-01-20","TLE_LINE1":"1 47401U 21005BE  22039.84597817  .00002077  00000-0  15832-3 0  9997","EPHEMERIS_TYPE":"0","NORAD_CAT_ID":"47401","CENTER_NAME":"EARTH","ELEMENT_SET_NO":"999","ECCENTRICITY":"0.00015900","OBJECT_TYPE":"PAYLOAD","TLE_LINE2":"2 47401  53.0544 239.7966 0001590  63.3017 296.8134 15.06397369 59529","RCS_SIZE":"LARGE","APOAPSIS":"548.323","SEMIMAJOR_AXIS":"6925.357","CLASSIFICATION_TYPE":"U","MEAN_MOTION_DOT":"0.00002077","BSTAR":"0.00015832000000","REV_AT_EPOCH":"5952","MEAN_MOTION_DDOT":"0.0000000000000","PERIOD":"95.592","GP_ID":"195581080","COUNTRY_CODE":"US","MEAN_MOTION":"15.06397369","OBJECT_ID":"2021-005BE","PERIAPSIS":"546.120"},{"TLE_LINE2":"2 47402  53.0529 241.1934 0001492  59.5770 300.5366 15.06381683 58867","SEMIMAJOR_AXIS":"6925.405","CLASSIFICATION_TYPE":"U","MEAN_MOTION_DOT":"0.00000130","APOAPSIS":"548.303","RCS_SIZE":"LARGE","CENTER_NAME":"EARTH","ELEMENT_SET_NO":"999","OBJECT_TYPE":"PAYLOAD","ECCENTRICITY":"0.00014920","INCLINATION":"53.0529","MEAN_ANOMALY":"300.5366","ARG_OF_PERICENTER":"59.5770","FILE":"3295096","TLE_LINE1":"1 47402U 21005BF  22039.53269718  .00000130  00000-0  27661-4 0  9992","LAUNCH_DATE":"2021-01-20","NORAD_CAT_ID":"47402","EPHEMERIS_TYPE":"0","SITE":"AFETR","EPOCH":"2022-02-08T12:47:05.036352","OBJECT_NAME":"STARLINK-2124","MEAN_ELEMENT_THEORY":"SGP4","DECAY_DATE":null,"TIME_SYSTEM":"UTC","RA_OF_ASC_NODE":"241.1934","REF_FRAME":"TEME","PERIAPSIS":"546.236","OBJECT_ID":"2021-005BF","GP_ID":"195548043","COUNTRY_CODE":"US","MEAN_MOTION":"15.06381683","MEAN_MOTION_DDOT":"0.0000000000000","REV_AT_EPOCH":"5886","BSTAR":"0.00002766100000","PERIOD":"95.593"},{"INCLINATION":"53.0533","MEAN_ANOMALY":"287.1145","ARG_OF_PERICENTER":"73.0007","FILE":"3295382","TLE_LINE1":"1 47403U 21005BG  22039.80545287  .00001321  00000-0  10760-3 0  9995","LAUNCH_DATE":"2021-01-20","EPHEMERIS_TYPE":"0","NORAD_CAT_ID":"47403","SITE":"AFETR","EPOCH":"2022-02-08T19:19:51.127968","OBJECT_NAME":"STARLINK-2127","MEAN_ELEMENT_THEORY":"SGP4","DECAY_DATE":null,"TIME_SYSTEM":"UTC","RA_OF_ASC_NODE":"239.9791","REF_FRAME":"TEME","TLE_LINE2":"2 47403  53.0533 239.9791 0001490  73.0007 287.1145 15.06381791 59519","SEMIMAJOR_AXIS":"6925.404","MEAN_MOTION_DOT":"0.00001321","CLASSIFICATION_TYPE":"U","RCS_SIZE":"LARGE","APOAPSIS":"548.301","CENTER_NAME":"EARTH","ELEMENT_SET_NO":"999","ECCENTRICITY":"0.00014900","OBJECT_TYPE":"PAYLOAD","GP_ID":"195580870","COUNTRY_CODE":"US","MEAN_MOTION":"15.06381791","REV_AT_EPOCH":"5951","MEAN_MOTION_DDOT":"0.0000000000000","BSTAR":"0.00010760000000","PERIOD":"95.593","PERIAPSIS":"546.237","OBJECT_ID":"2021-005BG"},{"GP_ID":"195547044","COUNTRY_CODE":"US","MEAN_MOTION":"15.06384384","BSTAR":"0.00000896140000","REV_AT_EPOCH":"5882","MEAN_MOTION_DDOT":"0.0000000000000","PERIOD":"95.593","OBJECT_ID":"2021-005BH","PERIAPSIS":"546.096","ARG_OF_PERICENTER":"66.8620","FILE":"3295096","INCLINATION":"53.0532","MEAN_ANOMALY":"293.2546","SITE":"AFETR","EPOCH":"2022-02-08T06:30:13.407264","TLE_LINE1":"1 47404U 21005BH  22039.27098851 -.00000148  00000-0  89614-5 0  9990","LAUNCH_DATE":"2021-01-20","EPHEMERIS_TYPE":"0","NORAD_CAT_ID":"47404","DECAY_DATE":null,"MEAN_ELEMENT_THEORY":"SGP4","OBJECT_NAME":"STARLINK-2128","RA_OF_ASC_NODE":"242.3777","REF_FRAME":"TEME","TIME_SYSTEM":"UTC","TLE_LINE2":"2 47404  53.0532 242.3777 0001683  66.8620 293.2546 15.06384384 58823","RCS_SIZE":"LARGE","APOAPSIS":"548.427","SEMIMAJOR_AXIS":"6925.396","MEAN_MOTION_DOT":"-0.00000148","CLASSIFICATION_TYPE":"U","CENTER_NAME":"EARTH","ELEMENT_SET_NO":"999","ECCENTRICITY":"0.00016830","OBJECT_TYPE":"PAYLOAD"},{"OBJECT_ID":"2021-005BJ","PERIAPSIS":"546.082","GP_ID":"195547791","MEAN_MOTION":"15.06388588","COUNTRY_CODE":"US","BSTAR":"0.00008852100000","REV_AT_EPOCH":"5836","MEAN_MOTION_DDOT":"0.0000000000000","PERIOD":"95.593","TLE_LINE2":"2 47405  53.0516 273.3407 0001684  64.3221 295.7941 15.06388588 58366","RCS_SIZE":"LARGE","APOAPSIS":"548.415","MEAN_MOTION_DOT":"0.00001037","CLASSIFICATION_TYPE":"U","SEMIMAJOR_AXIS":"6925.384","ELEMENT_SET_NO":"999","CENTER_NAME":"EARTH","OBJECT_TYPE":"PAYLOAD","ECCENTRICITY":"0.00016840","FILE":"3295096","ARG_OF_PERICENTER":"64.3221","MEAN_ANOMALY":"295.7941","INCLINATION":"53.0516","SITE":"AFETR","EPOCH":"2022-02-08T01:18:22.540320","EPHEMERIS_TYPE":"0","NORAD_CAT_ID":"47405","LAUNCH_DATE":"2021-01-20","TLE_LINE1":"1 47405U 21005BJ  22039.05442755  .00001037  00000-0  88521-4 0  9995","DECAY_DATE":null,"MEAN_ELEMENT_THEORY":"SGP4","OBJECT_NAME":"STARLINK-2130","REF_FRAME":"TEME","RA_OF_ASC_NODE":"273.3407","TIME_SYSTEM":"UTC"},{"OBJECT_ID":"2021-005BK","PERIAPSIS":"546.212","PERIOD":"95.593","BSTAR":"0.00002296300000","REV_AT_EPOCH":"5951","MEAN_MOTION_DDOT":"0.0000000000000","COUNTRY_CODE":"US","MEAN_MOTION":"15.06389777","GP_ID":"195580875","OBJECT_TYPE":"PAYLOAD","ECCENTRICITY":"0.00014910","CENTER_NAME":"EARTH","ELEMENT_SET_NO":"999","APOAPSIS":"548.277","RCS_SIZE":"LARGE","SEMIMAJOR_AXIS":"6925.380","MEAN_MOTION_DOT":"0.00000060","CLASSIFICATION_TYPE":"U","TLE_LINE2":"2 47406  53.0545 239.9348 0001491  87.9073 272.2087 15.06389777 59513","RA_OF_ASC_NODE":"239.9348","REF_FRAME":"TEME","TIME_SYSTEM":"UTC","DECAY_DATE":null,"OBJECT_NAME":"STARLINK-2133","MEAN_ELEMENT_THEORY":"SGP4","EPOCH":"2022-02-08T19:30:29.080512","SITE":"AFETR","LAUNCH_DATE":"2021-01-20","TLE_LINE1":"1 47406U 21005BK  22039.81283658  .00000060  00000-0  22963-4 0  9998","EPHEMERIS_TYPE":"0","NORAD_CAT_ID":"47406","ARG_OF_PERICENTER":"87.9073","FILE":"3295382","INCLINATION":"53.0545","MEAN_ANOMALY":"272.2087"},{"PERIAPSIS":"546.083","OBJECT_ID":"2021-005BL","PERIOD":"95.593","MEAN_MOTION_DDOT":"0.0000000000000","REV_AT_EPOCH":"5886","BSTAR":"0.00008330100000","MEAN_MOTION":"15.06389983","COUNTRY_CODE":"US","GP_ID":"195548782","OBJECT_TYPE":"PAYLOAD","ECCENTRICITY":"0.00016770","ELEMENT_SET_NO":"999","CENTER_NAME":"EARTH","MEAN_MOTION_DOT":"0.00000959","CLASSIFICATION_TYPE":"U","SEMIMAJOR_AXIS":"6925.379","APOAPSIS":"548.406","RCS_SIZE":"LARGE","TLE_LINE2":"2 47407  53.0533 241.1050 0001677  65.9108 294.2056 15.06389983 58863","TIME_SYSTEM":"UTC","REF_FRAME":"TEME","RA_OF_ASC_NODE":"241.1050","MEAN_ELEMENT_THEORY":"SGP4","OBJECT_NAME":"STARLINK-2134","DECAY_DATE":null,"EPHEMERIS_TYPE":"0","NORAD_CAT_ID":"47407","TLE_LINE1":"1 47407U 21005BL  22039.55480366  .00000959  00000-0  83301-4 0  9995","LAUNCH_DATE":"2021-01-20","EPOCH":"2022-02-08T13:18:55.036224","SITE":"AFETR","MEAN_ANOMALY":"294.2056","INCLINATION":"53.0533","FILE":"3295096","ARG_OF_PERICENTER":"65.9108"},{"REV_AT_EPOCH":"5886","MEAN_MOTION_DDOT":"0.0000000000000","BSTAR":"0.00010303000000","PERIOD":"95.593","GP_ID":"195547545","MEAN_MOTION":"15.06379905","COUNTRY_CODE":"US","PERIAPSIS":"546.214","OBJECT_ID":"2021-005BM","OBJECT_NAME":"STARLINK-2135","MEAN_ELEMENT_THEORY":"SGP4","DECAY_DATE":null,"TIME_SYSTEM":"UTC","REF_FRAME":"TEME","RA_OF_ASC_NODE":"241.2264","MEAN_ANOMALY":"297.1481","INCLINATION":"53.0547","FILE":"3295096","ARG_OF_PERICENTER":"62.9664","NORAD_CAT_ID":"47408","EPHEMERIS_TYPE":"0","TLE_LINE1":"1 47408U 21005BM  22039.52531702  .00001253  00000-0  10303-3 0  9993","LAUNCH_DATE":"2021-01-20","SITE":"AFETR","EPOCH":"2022-02-08T12:36:27.390528","ELEMENT_SET_NO":"999","CENTER_NAME":"EARTH","ECCENTRICITY":"0.00015320","OBJECT_TYPE":"PAYLOAD","TLE_LINE2":"2 47408  53.0547 241.2264 0001532  62.9664 297.1481 15.06379905 58868","MEAN_MOTION_DOT":"0.00001253","CLASSIFICATION_TYPE":"U","SEMIMAJOR_AXIS":"6925.410","RCS_SIZE":"LARGE","APOAPSIS":"548.336"}];
